{"type": "FeatureCollection", "features": [ {"type": "Feature", "properties": {"norad_id": 31715, "name": "FENGYUN 1C DEB", "group": "fengyun-1c-debris", "lat": -49.997365409119375, "lon": -3.8827571335906557, "alt_km": 830.4825785550511, "timestamp": "2025-12-23T09:49:07.367184+00:00", "meta": {"OBJECT_NAME": "FENGYUN 1C DEB", "OBJECT_ID": "1999-025CDN", "EPOCH": "2025-12-22T06:19:04.023264", "MEAN_MOTION": 14.52235042, "ECCENTRICITY": 0.01870635, "INCLINATION": 99.2924, "RA_OF_ASC_NODE": 186.1002, "ARG_OF_PERICENTER": 91.1269, "MEAN_ANOMALY": 271.136, "EPHEMERIS_TYPE": 0, "CLASSIFICATION_TYPE": "U", "NORAD_CAT_ID": 31715, "ELEMENT_SET_NO": 999, "REV_AT_EPOCH": 61855, "BSTAR": 0.00074319461, "MEAN_MOTION_DOT": 3.734e-05, "MEAN_MOTION_DDOT": 0}, "tle": {"line1": "1 31715U 99025CDN 25356.26324101  .00003734  00000+0  74319-3 0  9995", "line2": "2 31715  99.2924 186.1002 0187063  91.1269 271.1360 14.52235042618558"}}, "geometry": {"type": "Point", "coordinates": [-3.8827571335906557, -49.997365409119375]}}, {"type": "Feature", "properties": {"norad_id": 31716, "name": "FENGYUN 1C DEB", "group": "fengyun-1c-debris", "lat": 68.67380014446341, "lon": 98.43930872930468, "alt_km": 810.3328105827122, "timestamp": "2025-12-23T09:49:07.367195+00:00", "meta": {"OBJECT_NAME": "FENGYUN 1C DEB", "OBJECT_ID": "1999-025CDP", "EPOCH": "2025-12-22T04:56:09.663360", "MEAN_MOTION": 14.03648518, "ECCENTRICITY": 0.01309786, "INCLINATION": 98.5545, "RA_OF_ASC_NODE": 254.6295, "ARG_OF_PERICENTER": 64.8123, "MEAN_ANOMALY": 85.8526, "EPHEMERIS_TYPE": 0, "CLASSIFICATION_TYPE": "U", "NORAD_CAT_ID": 31716, "ELEMENT_SET_NO": 999, "REV_AT_EPOCH": 94252, "BSTAR": 0.0014935181, "MEAN_MOTION_DOT": 2.492e-05, "MEAN_MOTION_DDOT": 0}, "tle": {"line1": "1 31716U 99025CDP 25356.20566740  .00002492  00000+0  14935-2 0  9994", "line2": "2 31716  98.5545 254.6295 0130978  64.8123  85.8526 14.03648518942527"}}, "geometry": {"type": "Point", "coordinates": [98.43930872930468, 68.67380014446341]}}, {"type": "Feature", "properties": {"norad_id": 31720, "name": "FENGYUN 1C DEB", "group": "fengyun-1c-debris", "lat": -5.544828302109857, "lon": -88.59583629435187, "alt_km": 665.4159551921039, "timestamp": "2025-12-23T09:49:07.367205+00:00", "meta": {"OBJECT_NAME": "FENGYUN 1C DEB", "OBJECT_ID": "1999-025CDT", "EPOCH": "2025-12-17T00:28:52.679424", "MEAN_MOTION": 14.71860526, "ECCENTRICITY": 0.01002517, "INCLINATION": 99.048, "RA_OF_ASC_NODE": 263.4173, "ARG_OF_PERICENTER": 110.3863, "MEAN_ANOMALY": 250.8144, "EPHEMERIS_TYPE": 0, "CLASSIFICATION_TYPE": "U", "NORAD_CAT_ID": 31720, "ELEMENT_SET_NO": 999, "REV_AT_EPOCH": 98299, "BSTAR": 0.00056875806, "MEAN_MOTION_DOT": 3.786e-05, "MEAN_MOTION_DDOT": 0}, "tle": {"line1": "1 31720U 99025CDT 25351.02005416  .00003786  00000+0  56876-3 0  9990", "line2": "2 31720  99.0480 263.4173 0100251 110.3863 250.8144 14.71860526982993"}}, "geometry": {"type": "Point", "coordinates": [-88.59583629435187, -5.544828302109857]}}, {"type": "Feature", "properties": {"norad_id": 31721, "name": "FENGYUN 1C DEB", "group": "fengyun-1c-debris", "lat": -75.83597573249577, "lon": 20.41217818799361, "alt_km": 1120.2399005974376, "timestamp": "2025-12-23T09:49:07.367215+00:00", "meta": {"OBJECT_NAME": "FENGYUN 1C DEB", "OBJECT_ID": "1999-025CDU", "EPOCH": "2025-12-21T17:08:10.591872", "MEAN_MOTION": 13.73785323, "ECCENTRICITY": 0.03176304, "INCLINATION": 99.7818, "RA_OF_ASC_NODE": 335.5544, "ARG_OF_PERICENTER": 160.3029, "MEAN_ANOMALY": 17.997, "EPHEMERIS_TYPE": 0, "CLASSIFICATION_TYPE": "U", "NORAD_CAT_ID": 31721, "ELEMENT_SET_NO": 999, "REV_AT_EPOCH": 67509, "BSTAR": 0.0002620403, "MEAN_MOTION_DOT": 3.07e-06, "MEAN_MOTION_DDOT": 0}, "tle": {"line1": "1 31721U 99025CDU 25355.71401148  .00000307  00000+0  26204-3 0  9991", "line2": "2 31721  99.7818 335.5544 0317630 160.3029  17.9970 13.73785323675090"}}, "geometry": {"type": "Point", "coordinates": [20.41217818799361, -75.83597573249577]}}, {"type": "Feature", "properties": {"norad_id": 31724, "name": "FENGYUN 1C DEB", "group": "fengyun-1c-debris", "lat": 73.11851182961688, "lon": -150.28628043459167, "alt_km": 745.728029239599, "timestamp": "2025-12-23T09:49:07.367225+00:00", "meta": {"OBJECT_NAME": "FENGYUN 1C DEB", "OBJECT_ID": "1999-025CDX", "EPOCH": "2025-12-22T18:24:41.467968", "MEAN_MOTION": 14.49282926, "ECCENTRICITY": 0.01517753, "INCLINATION": 97.854, "RA_OF_ASC_NODE": 2.0603, "ARG_OF_PERICENTER": 211.0771, "MEAN_ANOMALY": 148.1381, "EPHEMERIS_TYPE": 0, "CLASSIFICATION_TYPE": "U", "NORAD_CAT_ID": 31724, "ELEMENT_SET_NO": 999, "REV_AT_EPOCH": 64637, "BSTAR": 0.0022889291, "MEAN_MOTION_DOT": 0.0001008, "MEAN_MOTION_DDOT": 0}, "tle": {"line1": "1 31724U 99025CDX 25356.76714662  .00010080  00000+0  22889-2 0  9991", "line2": "2 31724  97.8540   2.0603 0151775 211.0771 148.1381 14.49282926646377"}}, "geometry": {"type": "Point", "coordinates": [-150.28628043459167, 73.11851182961688]}}, {"type": "Feature", "properties": {"norad_id": 31725, "name": "FENGYUN 1C DEB", "group": "fengyun-1c-debris", "lat": -62.88537032052054, "lon": 14.024467276710082, "alt_km": 1108.4765336368691, "timestamp": "2025-12-23T09:49:07.367235+00:00", "meta": {"OBJECT_NAME": "FENGYUN 1C DEB", "OBJECT_ID": "1999-025CDY", "EPOCH": "2025-12-17T21:05:21.230880", "MEAN_MOTION": 12.79203585, "ECCENTRICITY": 0.06944571, "INCLINATION": 99.1801, "RA_OF_ASC_NODE": 207.8945, "ARG_OF_PERICENTER": 323.3807, "MEAN_ANOMALY": 32.1667, "EPHEMERIS_TYPE": 0, "CLASSIFICATION_TYPE": "U", "NORAD_CAT_ID": 31725, "ELEMENT_SET_NO": 999, "REV_AT_EPOCH": 86547, "BSTAR": 0.0022154725, "MEAN_MOTION_DOT": 1.348e-05, "MEAN_MOTION_DDOT": 0}, "tle": {"line1": "1 31725U 99025CDY 25351.87871795  .00001348  00000+0  22155-2 0  9993", "line2": "2 31725  99.1801 207.8945 0694457 323.3807  32.1667 12.79203585865471"}}, "geometry": {"type": "Point", "coordinates": [14.024467276710082, -62.88537032052054]}}, {"type": "Feature", "properties": {"norad_id": 31727, "name": "FENGYUN 1C DEB", "group": "fengyun-1c-debris", "lat": 11.144025546707098, "lon": 108.01703567469022, "alt_km": 759.1290361203719, "timestamp": "2025-12-23T09:49:07.367246+00:00", "meta": {"OBJECT_NAME": "FENGYUN 1C DEB", "OBJECT_ID": "1999-025CEA", "EPOCH": "2025-12-22T19:25:58.189728", "MEAN_MOTION": 14.37119426, "ECCENTRICITY": 0.00327118, "INCLINATION": 98.8662, "RA_OF_ASC_NODE": 109.1617, "ARG_OF_PERICENTER": 309.0011, "MEAN_ANOMALY": 202.6819, "EPHEMERIS_TYPE": 0, "CLASSIFICATION_TYPE": "U", "NORAD_CAT_ID": 31727, "ELEMENT_SET_NO": 999, "REV_AT_EPOCH": 71813, "BSTAR": 0.0019103166, "MEAN_MOTION_DOT": 5.668e-05, "MEAN_MOTION_DDOT": 0}, "tle": {"line1": "1 31727U 99025CEA 25356.80970127  .00005668  00000+0  19103-2 0  9990", "line2": "2 31727  98.8662 109.1617 0032711 309.0011 202.6819 14.37119426718130"}}, "geometry": {"type": "Point", "coordinates": [108.01703567469022, 11.144025546707098]}}, {"type": "Feature", "properties": {"norad_id": 31731, "name": "FENGYUN 1C DEB", "group": "fengyun-1c-debris", "lat": -48.1590020465304, "lon": 57.094315499451405, "alt_km": 767.8420604956673, "timestamp": "2025-12-23T09:49:07.367256+00:00", "meta": {"OBJECT_NAME": "FENGYUN 1C DEB", "OBJECT_ID": "1999-025CEE", "EPOCH": "2025-11-27T02:07:07.827456", "MEAN_MOTION": 14.40063792, "ECCENTRICITY": 0.00116613, "INCLINATION": 99.3084, "RA_OF_ASC_NODE": 17.9462, "ARG_OF_PERICENTER": 144.9647, "MEAN_ANOMALY": 215.2308, "EPHEMERIS_TYPE": 0, "CLASSIFICATION_TYPE": "U", "NORAD_CAT_ID": 31731, "ELEMENT_SET_NO": 999, "REV_AT_EPOCH": 95605, "BSTAR": 0.0018623031, "MEAN_MOTION_DOT": 5.831e-05, "MEAN_MOTION_DDOT": 0}, "tle": {"line1": "1 31731U 99025CEE 25331.08828504  .00005831  00000+0  18623-2 0  9997", "line2": "2 31731  99.3084  17.9462 0011661 144.9647 215.2308 14.40063792956051"}}, "geometry": {"type": "Point", "coordinates": [57.094315499451405, -48.1590020465304]}}, {"type": "Feature", "properties": {"norad_id": 31732, "name": "FENGYUN 1C DEB", "group": "fengyun-1c-debris", "lat": -56.7631329707858, "lon": -161.611821457057, "alt_km": 832.071653223562, "timestamp": "2025-12-23T09:49:07.367268+00:00", "meta": {"OBJECT_NAME": "FENGYUN 1C DEB", "OBJECT_ID": "1999-025CEF", "EPOCH": "2025-12-20T21:11:00.979872", "MEAN_MOTION": 14.12263162, "ECCENTRICITY": 0.0039959, "INCLINATION": 98.572, "RA_OF_ASC_NODE": 29.2791, "ARG_OF_PERICENTER": 221.8195, "MEAN_ANOMALY": 137.9923, "EPHEMERIS_TYPE": 0, "CLASSIFICATION_TYPE": "U", "NORAD_CAT_ID": 31732, "ELEMENT_SET_NO": 999, "REV_AT_EPOCH": 64445, "BSTAR": 0.00027164, "MEAN_MOTION_DOT": 4.62e-06, "MEAN_MOTION_DDOT": 0}, "tle": {"line1": "1 31732U 99025CEF 25354.88265023  .00000462  00000+0  27164-3 0  9998", "line2": "2 31732  98.5720  29.2791 0039959 221.8195 137.9923 14.12263162644457"}}, "geometry": {"type": "Point", "coordinates": [-161.611821457057, -56.7631329707858]}}, {"type": "Feature", "properties": {"norad_id": 31734, "name": "FENGYUN 1C DEB", "group": "fengyun-1c-debris", "lat": 64.17111909469139, "lon": -28.71086926820244, "alt_km": 787.0480454409335, "timestamp": "2025-12-23T09:49:07.367278+00:00", "meta": {"OBJECT_NAME": "FENGYUN 1C DEB", "OBJECT_ID": "1999-025CEH", "EPOCH": "2025-12-17T05:38:30.357312", "MEAN_MOTION": 14.2902964, "ECCENTRICITY": 0.01035042, "INCLINATION": 98.4953, "RA_OF_ASC_NODE": 343.2584, "ARG_OF_PERICENTER": 354.3593, "MEAN_ANOMALY": 5.6416, "EPHEMERIS_TYPE": 0, "CLASSIFICATION_TYPE": "U", "NORAD_CAT_ID": 31734, "ELEMENT_SET_NO": 999, "REV_AT_EPOCH": 96515, "BSTAR": 0.00042036115, "MEAN_MOTION_DOT": 1.084e-05, "MEAN_MOTION_DDOT": 0}, "tle": {"line1": "1 31734U 99025CEH 25351.23507358  .00001084  00000+0  42036-3 0  9992", "line2": "2 31734  98.4953 343.2584 0103504 354.3593   5.6416 14.29029640965157"}}, "geometry": {"type": "Point", "coordinates": [-28.71086926820244, 64.17111909469139]}}]}